ONEWEB-0215             
1 48800U 21045AK  25251.23607272  .00000070  00000+0  15065-3 0  9992
2 48800  87.9052 315.4155 0001147  95.8353 264.2908 13.15548280207224
ONEWEB-0216             
1 48801U 21045AL  25251.24558162  .00000181  00000+0  44627-3 0  9996
2 48801  87.9040 315.4550 0001858  91.1099 269.0244 13.15546562207234
ONEWEB-0239             
1 48802U 21045AM  25251.25033608  .00000197  00000+0  48946-3 0  9996
2 48802  87.9043 315.4682 0001115 111.5999 248.5250 13.15549543207271
ONEWEB-0249             
1 48967U 21060A   25251.17938289  .00000097  00000+0  22066-3 0  9999
2 48967  87.8992 284.9885 0001869  96.2987 263.8357 13.16595360202500
ONEWEB-0250             
1 48968U 21060B   25251.13147898 -.00000046  00000+0 -13432-3 0  9997
2 48968  87.8990 283.6780 0001763 124.7105 235.4197 13.25812841202841
ONEWEB-0252             
1 48970U 21060D   25251.13504651  .00000027  00000+0  37849-4 0  9990
2 48970  87.8991 284.9906 0002086  85.7584 274.3785 13.16595230202547
ONEWEB-0253             
1 48971U 21060E   25251.12396073 -.00000006  00000+0 -49764-4 0  9995
2 48971  87.8991 284.9963 0001686  90.6729 269.4595 13.16595044202471
ONEWEB-0254             
1 48972U 21060F   25251.13346519 -.00000027  00000+0 -10428-3 0  9994
2 48972  87.8997 284.9812 0001477  96.9741 263.1558 13.16593284202476
ONEWEB-0255             
1 48973U 21060G   25251.17145875  .00000055  00000+0  11030-3 0  9990
2 48973  87.8985 285.0007 0001611  93.4818 266.6497 13.16595427202559
ONEWEB-0256             
1 48974U 21060H   25251.12158525 -.00000019  00000+0 -83855-4 0  9999
2 48974  87.8985 285.0212 0002022  90.9894 269.1468 13.16595137202511
ONEWEB-0257             
1 48975U 21060J   25251.15405041  .00000044  00000+0  80840-4 0  9998
2 48975  87.8993 284.9836 0001717  89.9848 270.1480 13.16594765202475
ONEWEB-0258             
1 48976U 21060K   25251.15562732  .00000029  00000+0  42625-4 0  9992
2 48976  87.8986 285.0069 0001883  96.7947 263.3398 13.16595535202487
ONEWEB-0259             
1 48977U 21060L   25251.14929914  .00000015  00000+0  50191-5 0  9994
2 48977  87.8989 284.9940 0001721  95.2345 264.8982 13.16594412202516
ONEWEB-0260             
1 48978U 21060M   25251.14058596  .00000034  00000+0  54639-4 0  9995
2 48978  87.8982 285.0190 0002144  80.5895 279.5478 13.16595193202493
ONEWEB-0261             
1 48979U 21060N   25251.11050966  .00000050  00000+0  97742-4 0  9996
2 48979  87.8984 285.0266 0001572  82.7895 277.3415 13.16594174202549
ONEWEB-0262             
1 48980U 21060P   25251.16671159  .00000065  00000+0  13529-3 0  9992
2 48980  87.8992 284.9793 0001626 101.3205 258.8109 13.16595773202513
ONEWEB-0263             
1 48981U 21060Q   25251.12238586 -.00000048  00000+0 -15824-3 0  9995
2 48981  87.8985 285.0105 0001440  89.2723 270.8573 13.16594478202473
