[{"OBJECT_NAME":"ONEWEB-0215","OBJECT_ID":"2021-045AK","EPOCH":"2025-09-08T05:39:56.683008","MEAN_MOTION":13.1554828,"ECCENTRICITY":0.00011476,"INCLINATION":87.9052,"RA_OF_ASC_NODE":315.4155,"ARG_OF_PERICENTER":95.8353,"MEAN_ANOMALY":264.2908,"EPHEMERIS_TYPE":0,"CLASSIFICATION_TYPE":"U","NORAD_CAT_ID":48800,"ELEMENT_SET_NO":999,"REV_AT_EPOCH":20722,"BSTAR":0.00015065383,"MEAN_MOTION_DOT":7.0e-7,"MEAN_MOTION_DDOT":0},{"OBJECT_NAME":"ONEWEB-0216","OBJECT_ID":"2021-045AL","EPOCH":"2025-09-08T05:53:38.251968","MEAN_MOTION":13.15546562,"ECCENTRICITY":0.00018582,"INCLINATION":87.904,"RA_OF_ASC_NODE":315.455,"ARG_OF_PERICENTER":91.1099,"MEAN_ANOMALY":269.0244,"EPHEMERIS_TYPE":0,"CLASSIFICATION_TYPE":"U","NORAD_CAT_ID":48801,"ELEMENT_SET_NO":999,"REV_AT_EPOCH":20723,"BSTAR":0.00044627452,"MEAN_MOTION_DOT":1.81e-6,"MEAN_MOTION_DDOT":0},{"OBJECT_NAME":"ONEWEB-0239","OBJECT_ID":"2021-045AM","EPOCH":"2025-09-08T06:00:29.037312","MEAN_MOTION":13.15549543,"ECCENTRICITY":0.00011151,"INCLINATION":87.9043,"RA_OF_ASC_NODE":315.4682,"ARG_OF_PERICENTER":111.5999,"MEAN_ANOMALY":248.525,"EPHEMERIS_TYPE":0,"CLASSIFICATION_TYPE":"U","NORAD_CAT_ID":48802,"ELEMENT_SET_NO":999,"REV_AT_EPOCH":20727,"BSTAR":0.00048946441,"MEAN_MOTION_DOT":1.97e-6,"MEAN_MOTION_DDOT":0},{"OBJECT_NAME":"ONEWEB-0249","OBJECT_ID":"2021-060A","EPOCH":"2025-09-08T04:18:18.681696","MEAN_MOTION":13.1659536,"ECCENTRICITY":0.00018694,"INCLINATION":87.8992,"RA_OF_ASC_NODE":284.9885,"ARG_OF_PERICENTER":96.2987,"MEAN_ANOMALY":263.8357,"EPHEMERIS_TYPE":0,"CLASSIFICATION_TYPE":"U","NORAD_CAT_ID":48967,"ELEMENT_SET_NO":999,"REV_AT_EPOCH":20250,"BSTAR":0.00022066369,"MEAN_MOTION_DOT":9.7e-7,"MEAN_MOTION_DDOT":0},{"OBJECT_NAME":"ONEWEB-0250","OBJECT_ID":"2021-060B","EPOCH":"2025-09-08T03:09:19.783872","MEAN_MOTION":13.25812841,"ECCENTRICITY":0.00017636,"INCLINATION":87.899,"RA_OF_ASC_NODE":283.678,"ARG_OF_PERICENTER":124.7105,"MEAN_ANOMALY":235.4197,"EPHEMERIS_TYPE":0,"CLASSIFICATION_TYPE":"U","NORAD_CAT_ID":48968,"ELEMENT_SET_NO":999,"REV_AT_EPOCH":20284,"BSTAR":-0.00013431829,"MEAN_MOTION_DOT":-4.6e-7,"MEAN_MOTION_DDOT":0},{"OBJECT_NAME":"ONEWEB-0252","OBJECT_ID":"2021-060D","EPOCH":"2025-09-08T03:14:28.018464","MEAN_MOTION":13.1659523,"ECCENTRICITY":0.0002086,"INCLINATION":87.8991,"RA_OF_ASC_NODE":284.9906,"ARG_OF_PERICENTER":85.7584,"MEAN_ANOMALY":274.3785,"EPHEMERIS_TYPE":0,"CLASSIFICATION_TYPE":"U","NORAD_CAT_ID":48970,"ELEMENT_SET_NO":999,"REV_AT_EPOCH":20254,"BSTAR":3.7849184e-5,"MEAN_MOTION_DOT":2.7e-7,"MEAN_MOTION_DDOT":0},{"OBJECT_NAME":"ONEWEB-0253","OBJECT_ID":"2021-060E","EPOCH":"2025-09-08T02:58:30.207072","MEAN_MOTION":13.16595044,"ECCENTRICITY":0.00016866,"INCLINATION":87.8991,"RA_OF_ASC_NODE":284.9963,"ARG_OF_PERICENTER":90.6729,"MEAN_ANOMALY":269.4595,"EPHEMERIS_TYPE":0,"CLASSIFICATION_TYPE":"U","NORAD_CAT_ID":48971,"ELEMENT_SET_NO":999,"REV_AT_EPOCH":20247,"BSTAR":-4.9764395e-5,"MEAN_MOTION_DOT":-6.0e-8,"MEAN_MOTION_DDOT":0},{"OBJECT_NAME":"ONEWEB-0254","OBJECT_ID":"2021-060F","EPOCH":"2025-09-08T03:12:11.392416","MEAN_MOTION":13.16593284,"ECCENTRICITY":0.00014771,"INCLINATION":87.8997,"RA_OF_ASC_NODE":284.9812,"ARG_OF_PERICENTER":96.9741,"MEAN_ANOMALY":263.1558,"EPHEMERIS_TYPE":0,"CLASSIFICATION_TYPE":"U","NORAD_CAT_ID":48972,"ELEMENT_SET_NO":999,"REV_AT_EPOCH":20247,"BSTAR":-0.00010428175,"MEAN_MOTION_DOT":-2.7e-7,"MEAN_MOTION_DDOT":0},{"OBJECT_NAME":"ONEWEB-0255","OBJECT_ID":"2021-060G","EPOCH":"2025-09-08T04:06:54.036000","MEAN_MOTION":13.16595427,"ECCENTRICITY":0.00016113,"INCLINATION":87.8985,"RA_OF_ASC_NODE":285.0007,"ARG_OF_PERICENTER":93.4818,"MEAN_ANOMALY":266.6497,"EPHEMERIS_TYPE":0,"CLASSIFICATION_TYPE":"U","NORAD_CAT_ID":48973,"ELEMENT_SET_NO":999,"REV_AT_EPOCH":20255,"BSTAR":0.00011029783,"MEAN_MOTION_DOT":5.5e-7,"MEAN_MOTION_DDOT":0},{"OBJECT_NAME":"ONEWEB-0256","OBJECT_ID":"2021-060H","EPOCH":"2025-09-08T02:55:04.965600","MEAN_MOTION":13.16595137,"ECCENTRICITY":0.0002022,"INCLINATION":87.8985,"RA_OF_ASC_NODE":285.0212,"ARG_OF_PERICENTER":90.9894,"MEAN_ANOMALY":269.1468,"EPHEMERIS_TYPE":0,"CLASSIFICATION_TYPE":"U","NORAD_CAT_ID":48974,"ELEMENT_SET_NO":999,"REV_AT_EPOCH":20251,"BSTAR":-8.3855063e-5,"MEAN_MOTION_DOT":-1.9e-7,"MEAN_MOTION_DDOT":0},{"OBJECT_NAME":"ONEWEB-0257","OBJECT_ID":"2021-060J","EPOCH":"2025-09-08T03:41:49.955424","MEAN_MOTION":13.16594765,"ECCENTRICITY":0.00017179,"INCLINATION":87.8993,"RA_OF_ASC_NODE":284.9836,"ARG_OF_PERICENTER":89.9848,"MEAN_ANOMALY":270.148,"EPHEMERIS_TYPE":0,"CLASSIFICATION_TYPE":"U","NORAD_CAT_ID":48975,"ELEMENT_SET_NO":999,"REV_AT_EPOCH":20247,"BSTAR":8.0840471e-5,"MEAN_MOTION_DOT":4.4e-7,"MEAN_MOTION_DDOT":0},{"OBJECT_NAME":"ONEWEB-0258","OBJECT_ID":"2021-060K","EPOCH":"2025-09-08T03:44:06.200448","MEAN_MOTION":13.16595535,"ECCENTRICITY":0.00018834,"INCLINATION":87.8986,"RA_OF_ASC_NODE":285.0069,"ARG_OF_PERICENTER":96.7947,"MEAN_ANOMALY":263.3398,"EPHEMERIS_TYPE":0,"CLASSIFICATION_TYPE":"U","NORAD_CAT_ID":48976,"ELEMENT_SET_NO":999,"REV_AT_EPOCH":20248,"BSTAR":4.2625217e-5,"MEAN_MOTION_DOT":2.9e-7,"MEAN_MOTION_DDOT":0},{"OBJECT_NAME":"ONEWEB-0259","OBJECT_ID":"2021-060L","EPOCH":"2025-09-08T03:34:59.445696","MEAN_MOTION":13.16594412,"ECCENTRICITY":0.00017215,"INCLINATION":87.8989,"RA_OF_ASC_NODE":284.994,"ARG_OF_PERICENTER":95.2345,"MEAN_ANOMALY":264.8982,"EPHEMERIS_TYPE":0,"CLASSIFICATION_TYPE":"U","NORAD_CAT_ID":48977,"ELEMENT_SET_NO":999,"REV_AT_EPOCH":20251,"BSTAR":5.019059e-6,"MEAN_MOTION_DOT":1.5e-7,"MEAN_MOTION_DDOT":0},{"OBJECT_NAME":"ONEWEB-0260","OBJECT_ID":"2021-060M","EPOCH":"2025-09-08T03:22:26.626944","MEAN_MOTION":13.16595193,"ECCENTRICITY":0.0002144,"INCLINATION":87.8982,"RA_OF_ASC_NODE":285.019,"ARG_OF_PERICENTER":80.5895,"MEAN_ANOMALY":279.5478,"EPHEMERIS_TYPE":0,"CLASSIFICATION_TYPE":"U","NORAD_CAT_ID":48978,"ELEMENT_SET_NO":999,"REV_AT_EPOCH":20249,"BSTAR":5.4639165e-5,"MEAN_MOTION_DOT":3.4e-7,"MEAN_MOTION_DDOT":0},{"OBJECT_NAME":"ONEWEB-0261","OBJECT_ID":"2021-060N","EPOCH":"2025-09-08T02:39:08.034624","MEAN_MOTION":13.16594174,"ECCENTRICITY":0.00015729,"INCLINATION":87.8984,"RA_OF_ASC_NODE":285.0266,"ARG_OF_PERICENTER":82.7895,"MEAN_ANOMALY":277.3415,"EPHEMERIS_TYPE":0,"CLASSIFICATION_TYPE":"U","NORAD_CAT_ID":48979,"ELEMENT_SET_NO":999,"REV_AT_EPOCH":20254,"BSTAR":9.7742235e-5,"MEAN_MOTION_DOT":5.0e-7,"MEAN_MOTION_DDOT":0},{"OBJECT_NAME":"ONEWEB-0262","OBJECT_ID":"2021-060P","EPOCH":"2025-09-08T04:00:03.881376","MEAN_MOTION":13.16595773,"ECCENTRICITY":0.00016263,"INCLINATION":87.8992,"RA_OF_ASC_NODE":284.9793,"ARG_OF_PERICENTER":101.3205,"MEAN_ANOMALY":258.8109,"EPHEMERIS_TYPE":0,"CLASSIFICATION_TYPE":"U","NORAD_CAT_ID":48980,"ELEMENT_SET_NO":999,"REV_AT_EPOCH":20251,"BSTAR":0.00013529226,"MEAN_MOTION_DOT":6.5e-7,"MEAN_MOTION_DDOT":0},{"OBJECT_NAME":"ONEWEB-0263","OBJECT_ID":"2021-060Q","EPOCH":"2025-09-08T02:56:14.138304","MEAN_MOTION":13.16594478,"ECCENTRICITY":0.00014401,"INCLINATION":87.8985,"RA_OF_ASC_NODE":285.0105,"ARG_OF_PERICENTER":89.2723,"MEAN_ANOMALY":270.8573,"EPHEMERIS_TYPE":0,"CLASSIFICATION_TYPE":"U","NORAD_CAT_ID":48981,"ELEMENT_SET_NO":999,"REV_AT_EPOCH":20247,"BSTAR":-0.00015823651,"MEAN_MOTION_DOT":-4.8e-7,"MEAN_MOTION_DDOT":0}]
